[{"OBJECT_NAME":"STARLINK-2755","OBJECT_ID":"2021-040BD","EPOCH":"2026-03-10T00:00:02.999808","MEAN_MOTION":15.29229427,"ECCENTRICITY":0.00014421,"INCLINATION":53.1521,"RA_OF_ASC_NODE":189.3015,"ARG_OF_PERICENTER":108.7348,"MEAN_ANOMALY":34.7433,"EPHEMERIS_TYPE":0,"CLASSIFICATION_TYPE":"U","NORAD_CAT_ID":48479,"ELEMENT_SET_NO":999,"REV_AT_EPOCH":558,"BSTAR":0.0019756711,"MEAN_MOTION_DOT":0.00056869,"MEAN_MOTION_DDOT":0},{"OBJECT_NAME":"FENGYUN 1C DEB","OBJECT_ID":"1999-025ETT","EPOCH":"2026-03-07T08:30:03.670560","MEAN_MOTION":15.28888299,"ECCENTRICITY":0.00158464,"INCLINATION":99.1103,"RA_OF_ASC_NODE":112.0072,"ARG_OF_PERICENTER":201.0032,"MEAN_ANOMALY":159.0553,"EPHEMERIS_TYPE":0,"CLASSIFICATION_TYPE":"U","NORAD_CAT_ID":38726,"ELEMENT_SET_NO":999,"REV_AT_EPOCH":71135,"BSTAR":0.013792546,"MEAN_MOTION_DOT":0.00409659,"MEAN_MOTION_DDOT":0}]
